{
    "links": {
        "self": "http://www.neowsapp.com/rest/v1/neo/3843618?api_key=iIulBulltgU6a56xZRHN4H3l9WmuAYTsLGpBGhQ2"
    },
    "id": "3843618",
    "neo_reference_id": "3843618",
    "name": "(2019 QP2)",
    "designation": "2019 QP2",
    "nasa_jpl_url": "http://ssd.jpl.nasa.gov/sbdb.cgi?sstr=3843618",
    "absolute_magnitude_h": 24.7,
    "estimated_diameter": {
        "kilometers": {
            "estimated_diameter_min": 0.0305179233,
            "estimated_diameter_max": 0.0682401509
        },
        "meters": {
            "estimated_diameter_min": 30.5179232594,
            "estimated_diameter_max": 68.2401509401
        },
        "miles": {
            "estimated_diameter_min": 0.0189629525,
            "estimated_diameter_max": 0.0424024508
        },
        "feet": {
            "estimated_diameter_min": 100.1244233463,
            "estimated_diameter_max": 223.8850168104
        }
    },
    "is_potentially_hazardous_asteroid": false,
    "close_approach_data": [
        {
            "close_approach_date": "1998-02-09",
            "close_approach_date_full": "1998-Feb-09 02:59",
            "epoch_date_close_approach": 886993140000,
            "relative_velocity": {
                "kilometers_per_second": "14.0460902283",
                "kilometers_per_hour": "50565.9248220082",
                "miles_per_hour": "31419.6992317639"
            },
            "miss_distance": {
                "astronomical": "0.062429962",
                "lunar": "24.285255218",
                "kilometers": "9339389.33938094",
                "miles": "5803227.436259372"
            },
            "orbiting_body": "Mars"
        },
        {
            "close_approach_date": "2019-08-23",
            "close_approach_date_full": "2019-Aug-23 04:56",
            "epoch_date_close_approach": 1566536160000,
            "relative_velocity": {
                "kilometers_per_second": "17.4899978706",
                "kilometers_per_hour": "62963.992334002",
                "miles_per_hour": "39123.3762366469"
            },
            "miss_distance": {
                "astronomical": "0.0141010467",
                "lunar": "5.4853071663",
                "kilometers": "2109486.551090529",
                "miles": "1310774.1614421402"
            },
            "orbiting_body": "Earth"
        },
        {
            "close_approach_date": "2021-03-05",
            "close_approach_date_full": "2021-Mar-05 02:44",
            "epoch_date_close_approach": 1614912240000,
            "relative_velocity": {
                "kilometers_per_second": "12.0601951811",
                "kilometers_per_hour": "43416.7026518016",
                "miles_per_hour": "26977.4506005042"
            },
            "miss_distance": {
                "astronomical": "0.1782679099",
                "lunar": "69.3462169511",
                "kilometers": "26668499.610391913",
                "miles": "16571037.2486898794"
            },
            "orbiting_body": "Earth"
        }
    ],
    "orbital_data": {
        "orbit_id": "5",
        "orbit_determination_date": "2019-09-02 05:59:09",
        "first_observation_date": "2019-08-25",
        "last_observation_date": "2019-09-01",
        "data_arc_in_days": 7,
        "observations_used": 74,
        "orbit_uncertainty": "8",
        "minimum_orbit_intersection": ".0113038",
        "jupiter_tisserand_invariant": "4.387",
        "epoch_osculation": "2458721.5",
        "eccentricity": ".5685406650716666",
        "semi_major_axis": "1.483200421601801",
        "inclination": ".7297820074496695",
        "ascending_node_longitude": "213.8130834002461",
        "orbital_period": "659.7785425757883",
        "perihelion_distance": ".639940667469737",
        "perihelion_argument": "24.5018639119932",
        "aphelion_distance": "2.326460175733866",
        "perihelion_time": "2458665.592721061264",
        "mean_anomaly": "30.5051151548067",
        "mean_motion": ".5456376295515052",
        "equinox": "J2000",
        "orbit_class": {
            "orbit_class_type": "APO",
            "orbit_class_description": "Near-Earth asteroid orbits which cross the Earth’s orbit similar to that of 1862 Apollo",
            "orbit_class_range": "a (semi-major axis) > 1.0 AU; q (perihelion) < 1.017 AU"
        }
    },
    "is_sentry_object": false
}